[{"OBJECT_NAME":"YAOGAN-28","OBJECT_ID":"2015-064A","EPOCH":"2026-03-07T16:02:15.054720","MEAN_MOTION":15.25955766,"ECCENTRICITY":0.00110293,"INCLINATION":97.2902,"RA_OF_ASC_NODE":207.2006,"ARG_OF_PERICENTER":183.6617,"MEAN_ANOMALY":176.4543,"EPHEMERIS_TYPE":0,"CLASSIFICATION_TYPE":"U","NORAD_CAT_ID":41026,"ELEMENT_SET_NO":999,"REV_AT_EPOCH":57519,"BSTAR":0.00044967008,"MEAN_MOTION_DOT":0.00011502,"MEAN_MOTION_DDOT":0},{"OBJECT_NAME":"YAOGAN-29","OBJECT_ID":"2015-069A","EPOCH":"2026-03-07T15:14:55.925664","MEAN_MOTION":14.82993668,"ECCENTRICITY":0.00020553,"INCLINATION":98.0141,"RA_OF_ASC_NODE":95.059,"ARG_OF_PERICENTER":40.5374,"MEAN_ANOMALY":319.5992,"EPHEMERIS_TYPE":0,"CLASSIFICATION_TYPE":"U","NORAD_CAT_ID":41038,"ELEMENT_SET_NO":999,"REV_AT_EPOCH":55557,"BSTAR":0.00012132221,"MEAN_MOTION_DOT":9.31e-6,"MEAN_MOTION_DDOT":0},{"OBJECT_NAME":"KENT RIDGE 1","OBJECT_ID":"2015-077B","EPOCH":"2026-03-06T22:01:58.266336","MEAN_MOTION":15.22425851,"ECCENTRICITY":0.00084393,"INCLINATION":14.9802,"RA_OF_ASC_NODE":306.1766,"ARG_OF_PERICENTER":237.6438,"MEAN_ANOMALY":122.3067,"EPHEMERIS_TYPE":0,"CLASSIFICATION_TYPE":"U","NORAD_CAT_ID":41167,"ELEMENT_SET_NO":999,"REV_AT_EPOCH":56548,"BSTAR":0.00022639986,"MEAN_MOTION_DOT":6.163e-5,"MEAN_MOTION_DDOT":0},{"OBJECT_NAME":"GAOFEN-4","OBJECT_ID":"2015-083A","EPOCH":"2026-03-07T15:11:56.725152","MEAN_MOTION":1.00272447,"ECCENTRICITY":0.00038213,"INCLINATION":0.3882,"RA_OF_ASC_NODE":83.8559,"ARG_OF_PERICENTER":81.8398,"MEAN_ANOMALY":333.3149,"EPHEMERIS_TYPE":0,"CLASSIFICATION_TYPE":"U","NORAD_CAT_ID":41194,"ELEMENT_SET_NO":999,"REV_AT_EPOCH":3751,"BSTAR":0,"MEAN_MOTION_DOT":-3.36e-6,"MEAN_MOTION_DDOT":0},{"OBJECT_NAME":"JASON-3","OBJECT_ID":"2016-002A","EPOCH":"2026-03-07T15:26:30.713856","MEAN_MOTION":12.87625783,"ECCENTRICITY":0.00077864,"INCLINATION":66.0448,"RA_OF_ASC_NODE":339.3232,"ARG_OF_PERICENTER":277.0469,"MEAN_ANOMALY":82.9664,"EPHEMERIS_TYPE":0,"CLASSIFICATION_TYPE":"U","NORAD_CAT_ID":41240,"ELEMENT_SET_NO":999,"REV_AT_EPOCH":47417,"BSTAR":0.00016939084,"MEAN_MOTION_DOT":-1.9e-7,"MEAN_MOTION_DDOT":0},{"OBJECT_NAME":"SENTINEL-3A","OBJECT_ID":"2016-011A","EPOCH":"2026-03-07T14:21:34.504128","MEAN_MOTION":14.26740859,"ECCENTRICITY":0.0001239,"INCLINATION":98.6233,"RA_OF_ASC_NODE":135.4155,"ARG_OF_PERICENTER":99.6871,"MEAN_ANOMALY":260.4449,"EPHEMERIS_TYPE":0,"CLASSIFICATION_TYPE":"U","NORAD_CAT_ID":41335,"ELEMENT_SET_NO":999,"REV_AT_EPOCH":52357,"BSTAR":8.4952115e-5,"MEAN_MOTION_DOT":1.62e-6,"MEAN_MOTION_DDOT":0},{"OBJECT_NAME":"ZIYUAN 3-02 (ZY 3-02)","OBJECT_ID":"2016-033A","EPOCH":"2026-03-07T15:15:22.224096","MEAN_MOTION":15.21516732,"ECCENTRICITY":0.00111316,"INCLINATION":97.39,"RA_OF_ASC_NODE":144.3278,"ARG_OF_PERICENTER":307.145,"MEAN_ANOMALY":52.8769,"EPHEMERIS_TYPE":0,"CLASSIFICATION_TYPE":"U","NORAD_CAT_ID":41556,"ELEMENT_SET_NO":999,"REV_AT_EPOCH":54254,"BSTAR":0.00043566986,"MEAN_MOTION_DOT":9.759e-5,"MEAN_MOTION_DDOT":0},{"OBJECT_NAME":"CARTOSAT-2C","OBJECT_ID":"2016-040A","EPOCH":"2026-03-07T15:06:45.499392","MEAN_MOTION":15.19203858,"ECCENTRICITY":0.00102186,"INCLINATION":97.4609,"RA_OF_ASC_NODE":127.9392,"ARG_OF_PERICENTER":126.7896,"MEAN_ANOMALY":233.4278,"EPHEMERIS_TYPE":0,"CLASSIFICATION_TYPE":"U","NORAD_CAT_ID":41599,"ELEMENT_SET_NO":999,"REV_AT_EPOCH":53829,"BSTAR":0.00043761002,"MEAN_MOTION_DOT":9.159e-5,"MEAN_MOTION_DDOT":0},{"OBJECT_NAME":"SKYSAT-C1","OBJECT_ID":"2016-040C","EPOCH":"2026-03-07T14:44:19.940352","MEAN_MOTION":15.34459732,"ECCENTRICITY":0.00037157,"INCLINATION":96.9701,"RA_OF_ASC_NODE":103.896,"ARG_OF_PERICENTER":57.3782,"MEAN_ANOMALY":302.782,"EPHEMERIS_TYPE":0,"CLASSIFICATION_TYPE":"U","NORAD_CAT_ID":41601,"ELEMENT_SET_NO":999,"REV_AT_EPOCH":54228,"BSTAR":0.00039190207,"MEAN_MOTION_DOT":0.00013017,"MEAN_MOTION_DDOT":0},{"OBJECT_NAME":"LAPAN-A3","OBJECT_ID":"2016-040E","EPOCH":"2026-03-07T14:36:47.118816","MEAN_MOTION":15.32361498,"ECCENTRICITY":0.00112999,"INCLINATION":97.1485,"RA_OF_ASC_NODE":66.1547,"ARG_OF_PERICENTER":29.8354,"MEAN_ANOMALY":330.3531,"EPHEMERIS_TYPE":0,"CLASSIFICATION_TYPE":"U","NORAD_CAT_ID":41603,"ELEMENT_SET_NO":999,"REV_AT_EPOCH":53925,"BSTAR":0.00021935083,"MEAN_MOTION_DOT":6.792e-5,"MEAN_MOTION_DDOT":0},{"OBJECT_NAME":"GAOFEN-3","OBJECT_ID":"2016-049A","EPOCH":"2026-03-07T15:41:04.896960","MEAN_MOTION":14.42215235,"ECCENTRICITY":0.00016474,"INCLINATION":98.4051,"RA_OF_ASC_NODE":75.9565,"ARG_OF_PERICENTER":92.2148,"MEAN_ANOMALY":267.9231,"EPHEMERIS_TYPE":0,"CLASSIFICATION_TYPE":"U","NORAD_CAT_ID":41727,"ELEMENT_SET_NO":999,"REV_AT_EPOCH":50401,"BSTAR":4.79395e-6,"MEAN_MOTION_DOT":-2.8e-7,"MEAN_MOTION_DDOT":0},{"OBJECT_NAME":"SKYSAT-C4","OBJECT_ID":"2016-058B","EPOCH":"2026-03-07T15:33:11.169216","MEAN_MOTION":15.45286446,"ECCENTRICITY":8.181e-5,"INCLINATION":96.9291,"RA_OF_ASC_NODE":92.8446,"ARG_OF_PERICENTER":107.0973,"MEAN_ANOMALY":253.0367,"EPHEMERIS_TYPE":0,"CLASSIFICATION_TYPE":"U","NORAD_CAT_ID":41771,"ELEMENT_SET_NO":999,"REV_AT_EPOCH":52977,"BSTAR":0.00047130453,"MEAN_MOTION_DOT":0.00022388,"MEAN_MOTION_DDOT":0},{"OBJECT_NAME":"SKYSAT-C5","OBJECT_ID":"2016-058C","EPOCH":"2026-03-07T14:35:38.050656","MEAN_MOTION":15.34240804,"ECCENTRICITY":0.00017774,"INCLINATION":97.0613,"RA_OF_ASC_NODE":111.7626,"ARG_OF_PERICENTER":84.1096,"MEAN_ANOMALY":276.035,"EPHEMERIS_TYPE":0,"CLASSIFICATION_TYPE":"U","NORAD_CAT_ID":41772,"ELEMENT_SET_NO":999,"REV_AT_EPOCH":52817,"BSTAR":0.00038380003,"MEAN_MOTION_DOT":0.00012654,"MEAN_MOTION_DDOT":0},{"OBJECT_NAME":"SKYSAT-C2","OBJECT_ID":"2016-058D","EPOCH":"2026-03-07T15:05:09.041568","MEAN_MOTION":15.39632616,"ECCENTRICITY":0.00051593,"INCLINATION":97.0281,"RA_OF_ASC_NODE":92.6607,"ARG_OF_PERICENTER":72.9241,"MEAN_ANOMALY":287.257,"EPHEMERIS_TYPE":0,"CLASSIFICATION_TYPE":"U","NORAD_CAT_ID":41773,"ELEMENT_SET_NO":999,"REV_AT_EPOCH":52941,"BSTAR":0.00043728718,"MEAN_MOTION_DOT":0.00017184,"MEAN_MOTION_DDOT":0},{"OBJECT_NAME":"SKYSAT-C3","OBJECT_ID":"2016-058E","EPOCH":"2026-03-07T14:51:36.037440","MEAN_MOTION":15.48204968,"ECCENTRICITY":0.0001678,"INCLINATION":96.9176,"RA_OF_ASC_NODE":101.5783,"ARG_OF_PERICENTER":107.1343,"MEAN_ANOMALY":253.0092,"EPHEMERIS_TYPE":0,"CLASSIFICATION_TYPE":"U","NORAD_CAT_ID":41774,"ELEMENT_SET_NO":999,"REV_AT_EPOCH":53037,"BSTAR":0.00054206454,"MEAN_MOTION_DOT":0.00028507,"MEAN_MOTION_DDOT":0},{"OBJECT_NAME":"ALSAT-1B","OBJECT_ID":"2016-059C","EPOCH":"2026-03-07T15:10:19.091424","MEAN_MOTION":14.72185697,"ECCENTRICITY":0.00089344,"INCLINATION":97.78,"RA_OF_ASC_NODE":79.7649,"ARG_OF_PERICENTER":184.0973,"MEAN_ANOMALY":176.0163,"EPHEMERIS_TYPE":0,"CLASSIFICATION_TYPE":"U","NORAD_CAT_ID":41785,"ELEMENT_SET_NO":999,"REV_AT_EPOCH":50563,"BSTAR":0.0001153743,"MEAN_MOTION_DOT":6.8e-6,"MEAN_MOTION_DDOT":0},{"OBJECT_NAME":"PATHFINDER 1","OBJECT_ID":"2016-059E","EPOCH":"2026-03-07T14:48:15.920352","MEAN_MOTION":14.67514243,"ECCENTRICITY":0.00287659,"INCLINATION":97.8177,"RA_OF_ASC_NODE":70.4847,"ARG_OF_PERICENTER":167.3288,"MEAN_ANOMALY":192.8647,"EPHEMERIS_TYPE":0,"CLASSIFICATION_TYPE":"U","NORAD_CAT_ID":41787,"ELEMENT_SET_NO":999,"REV_AT_EPOCH":50481,"BSTAR":0.0002028614,"MEAN_MOTION_DOT":1.11e-5,"MEAN_MOTION_DDOT":0}]
