YAOGAN-28               
1 41026U 15064A   26066.66822980  .00011502  00000+0  44967-3 0  9991
2 41026  97.2902 207.2006 0011029 183.6617 176.4543 15.25955766575194
YAOGAN-29               
1 41038U 15069A   26066.63536951  .00000931  00000+0  12132-3 0  9999
2 41038  98.0141  95.0590 0002055  40.5374 319.5992 14.82993668555575
KENT RIDGE 1            
1 41167U 15077B   26065.91803549  .00006163  00000+0  22640-3 0  9999
2 41167  14.9802 306.1766 0008439 237.6438 122.3067 15.22425851565485
GAOFEN-4                
1 41194U 15083A   26066.63329543 -.00000336  00000+0  00000+0 0  9992
2 41194   0.3882  83.8559 0003821  81.8398 333.3149  1.00272447 37510
JASON-3                 
1 41240U 16002A   26066.64341104 -.00000019  00000+0  16939-3 0  9994
2 41240  66.0448 339.3232 0007786 277.0469  82.9664 12.87625783474176
SENTINEL-3A             
1 41335U 16011A   26066.59831602  .00000162  00000+0  84952-4 0  9999
2 41335  98.6233 135.4155 0001239  99.6871 260.4449 14.26740859523575
ZIYUAN 3-02 (ZY 3-02)   
1 41556U 16033A   26066.63567389  .00009759  00000+0  43567-3 0  9998
2 41556  97.3900 144.3278 0011131 307.1450  52.8769 15.21516732542547
CARTOSAT-2C             
1 41599U 16040A   26066.62969328  .00009159  00000+0  43761-3 0  9991
2 41599  97.4609 127.9392 0010218 126.7896 233.4278 15.19203858538297
SKYSAT-C1               
1 41601U 16040C   26066.61411968  .00013017  00000+0  39190-3 0  9995
2 41601  96.9701 103.8960 0003715  57.3782 302.7820 15.34459732542287
LAPAN-A3                
1 41603U 16040E   26066.60887869  .00006792  00000+0  21935-3 0  9993
2 41603  97.1485  66.1547 0011299  29.8354 330.3531 15.32361498539256
GAOFEN-3                
1 41727U 16049A   26066.65352890 -.00000028  00000+0  47939-5 0  9996
2 41727  98.4051  75.9565 0001647  92.2148 267.9231 14.42215235504010
SKYSAT-C4               
1 41771U 16058B   26066.64804594  .00022388  00000+0  47130-3 0  9990
2 41771  96.9291  92.8446 0000818 107.0973 253.0367 15.45286446529776
SKYSAT-C5               
1 41772U 16058C   26066.60807929  .00012654  00000+0  38380-3 0  9994
2 41772  97.0613 111.7626 0001777  84.1096 276.0350 15.34240804528170
SKYSAT-C2               
1 41773U 16058D   26066.62857687  .00017184  00000+0  43729-3 0  9999
2 41773  97.0281  92.6607 0005159  72.9241 287.2570 15.39632616529410
SKYSAT-C3               
1 41774U 16058E   26066.61916710  .00028507  00000+0  54206-3 0  9995
2 41774  96.9176 101.5783 0001678 107.1343 253.0092 15.48204968530375
ALSAT-1B                
1 41785U 16059C   26066.63216541  .00000680  00000+0  11537-3 0  9997
2 41785  97.7800  79.7649 0008934 184.0973 176.0163 14.72185697505639
PATHFINDER 1            
1 41787U 16059E   26066.61685093  .00001110  00000+0  20286-3 0  9999
2 41787  97.8177  70.4847 0028765 167.3288 192.8647 14.67514243504813
